[Satellite]
VERSION=1.1
NAME=ARIANE 5 R/B
NICKNAME=ARIANE 5 R/B
TLE1=1 28499U 04049H   22342.29348071  .00001052  00000+0  13520-3 0  9997
TLE2=2 28499  98.1156 100.8203 0090106 232.4279 157.0813 14.80662443969808
STATUS=0
